DMSP 5D-3 F16 (USA 172) 
1 28054U 03048A   23327.60352035  .00000274  00000+0  16876-3 0  9998
2 28054  99.0193 327.1853 0006361 279.1353 189.0375 14.13897276 37109
CHUANGXIN 1 (CX-1)      
1 28058U 03049B   23327.58425046  .00000449  00000+0  13447-3 0  9998
2 28058  98.6188 198.7915 0013483 135.9685 224.2583 14.47509153 60721
YAMAL 202               
1 28089U 03053A   23327.54822317 -.00000072  00000+0  00000+0 0  9995
2 28089   3.9605  82.1173 0005512 149.3537 191.6825  1.00271947 73305
UFO 11 (USA 174)        
1 28117U 03057A   23326.74262480 -.00000096  00000+0  00000+0 0  9997
2 28117   7.7458  37.2505 0002788 186.6325 180.0315  1.00272749 73055
NAVSTAR 53 (USA 175)    
1 28129U 03058A   23327.55814144 -.00000075  00000+0  00000+0 0  9998
2 28129  54.3293  59.8360 0066430 331.9431  27.7058  2.00561789146002
USA 176 (DSP 22)        
1 28158U 04004A   23326.67344174 -.00000217  00000+0  00000+0 0  9993
2 28158  10.7817  32.2813 0001659 229.8599 129.0723  1.00272632 23523
ABS-4 (MOBISAT-1)       
1 28184U 04007A   23327.52785985  .00000047  00000+0  00000+0 0  9999
2 28184   3.6522  83.2190 0006896 170.8750  59.1877  1.00270189 42947
EUTELSAT 7A             
1 28187U 04008A   23327.24592435  .00000111  00000+0  00000+0 0  9990
2 28187   3.4363  82.9003 0004375 162.7258 125.6917  1.00272346 71957
NAVSTAR 54 (USA 177)    
1 28190U 04009A   23327.26263759 -.00000059  00000+0  00000+0 0  9993
2 28190  55.6287 313.2890 0092093 141.6035   7.7509  2.00564700144151
SHIYAN 1 (SY-1)         
1 28220U 04012A   23327.59540603  .00010356  00000+0  67770-3 0  9994
2 28220  97.9842 342.0703 0010547  19.5014 340.6614 15.07918406 68820
AMC-11 (GE-11)          
1 28252U 04017A   23327.49357289 -.00000043  00000+0  00000+0 0  9991
2 28252   0.0475  78.0603 0002802 168.2168 242.5277  1.00272063 71485
INTELSAT 10-02          
1 28358U 04022A   23326.98799429 -.00000006  00000+0  00000+0 0  9992
2 28358   0.0153 335.4696 0000732 304.3347 136.6102  1.00268390 71140
NAVSTAR 55 (USA 178)    
1 28361U 04023A   23326.07757560  .00000087  00000+0  00000+0 0  9995
2 28361  54.3344 124.7037 0146842 274.3244 272.7747  2.00561375142226
APRIZESAT 2             
1 28366U 04025A   23327.54666699  .00000411  00000+0  14292-3 0  9990
2 28366  98.0952 172.9467 0106643 196.4883 163.2827 14.37127763 17069
SAUDICOMSAT 1           
1 28369U 04025D   23327.37470953  .00000992  00000+0  24740-3 0  9993
2 28369  98.5138 299.8022 0033448  13.6161 346.5929 14.53551851 27933
SAUDICOMSAT 2           
1 28370U 04025E   23327.47277627  .00000653  00000+0  18388-3 0  9994
2 28370  98.6059 300.2302 0056227 214.2519 145.5042 14.48359235 24422
SAUDISAT 2              
1 28371U 04025F   23327.51284929  .00000717  00000+0  17650-3 0  9995
2 28371  98.4560 292.7684 0024177 295.4706  64.3989 14.55155504 29440
