[{"OBJECT_NAME":"DMSP 5D-3 F16 (USA 172)","OBJECT_ID":"2003-048A","EPOCH":"2023-11-23T14:29:04.158240","MEAN_MOTION":14.13897276,"ECCENTRICITY":0.0006361,"INCLINATION":99.0193,"RA_OF_ASC_NODE":327.1853,"ARG_OF_PERICENTER":279.1353,"MEAN_ANOMALY":189.0375,"EPHEMERIS_TYPE":0,"CLASSIFICATION_TYPE":"U","NORAD_CAT_ID":28054,"ELEMENT_SET_NO":999,"REV_AT_EPOCH":3710,"BSTAR":0.00016876,"MEAN_MOTION_DOT":2.74e-6,"MEAN_MOTION_DDOT":0},{"OBJECT_NAME":"CHUANGXIN 1 (CX-1)","OBJECT_ID":"2003-049B","EPOCH":"2023-11-23T14:01:19.239744","MEAN_MOTION":14.47509153,"ECCENTRICITY":0.0013483,"INCLINATION":98.6188,"RA_OF_ASC_NODE":198.7915,"ARG_OF_PERICENTER":135.9685,"MEAN_ANOMALY":224.2583,"EPHEMERIS_TYPE":0,"CLASSIFICATION_TYPE":"U","NORAD_CAT_ID":28058,"ELEMENT_SET_NO":999,"REV_AT_EPOCH":6072,"BSTAR":0.00013447,"MEAN_MOTION_DOT":4.49e-6,"MEAN_MOTION_DDOT":0},{"OBJECT_NAME":"YAMAL 202","OBJECT_ID":"2003-053A","EPOCH":"2023-11-23T13:09:26.481888","MEAN_MOTION":1.00271947,"ECCENTRICITY":0.0005512,"INCLINATION":3.9605,"RA_OF_ASC_NODE":82.1173,"ARG_OF_PERICENTER":149.3537,"MEAN_ANOMALY":191.6825,"EPHEMERIS_TYPE":0,"CLASSIFICATION_TYPE":"U","NORAD_CAT_ID":28089,"ELEMENT_SET_NO":999,"REV_AT_EPOCH":7330,"BSTAR":0,"MEAN_MOTION_DOT":-7.2e-7,"MEAN_MOTION_DDOT":0},{"OBJECT_NAME":"UFO 11 (USA 174)","OBJECT_ID":"2003-057A","EPOCH":"2023-11-22T17:49:22.782720","MEAN_MOTION":1.00272749,"ECCENTRICITY":0.0002788,"INCLINATION":7.7458,"RA_OF_ASC_NODE":37.2505,"ARG_OF_PERICENTER":186.6325,"MEAN_ANOMALY":180.0315,"EPHEMERIS_TYPE":0,"CLASSIFICATION_TYPE":"U","NORAD_CAT_ID":28117,"ELEMENT_SET_NO":999,"REV_AT_EPOCH":7305,"BSTAR":0,"MEAN_MOTION_DOT":-9.6e-7,"MEAN_MOTION_DDOT":0},{"OBJECT_NAME":"NAVSTAR 53 (USA 175)","OBJECT_ID":"2003-058A","EPOCH":"2023-11-23T13:23:43.420416","MEAN_MOTION":2.00561789,"ECCENTRICITY":0.006643,"INCLINATION":54.3293,"RA_OF_ASC_NODE":59.836,"ARG_OF_PERICENTER":331.9431,"MEAN_ANOMALY":27.7058,"EPHEMERIS_TYPE":0,"CLASSIFICATION_TYPE":"U","NORAD_CAT_ID":28129,"ELEMENT_SET_NO":999,"REV_AT_EPOCH":14600,"BSTAR":0,"MEAN_MOTION_DOT":-7.5e-7,"MEAN_MOTION_DDOT":0},{"OBJECT_NAME":"USA 176 (DSP 22)","OBJECT_ID":"2004-004A","EPOCH":"2023-11-22T16:09:45.366336","MEAN_MOTION":1.00272632,"ECCENTRICITY":0.0001659,"INCLINATION":10.7817,"RA_OF_ASC_NODE":32.2813,"ARG_OF_PERICENTER":229.8599,"MEAN_ANOMALY":129.0723,"EPHEMERIS_TYPE":0,"CLASSIFICATION_TYPE":"U","NORAD_CAT_ID":28158,"ELEMENT_SET_NO":999,"REV_AT_EPOCH":2352,"BSTAR":0,"MEAN_MOTION_DOT":-2.17e-6,"MEAN_MOTION_DDOT":0},{"OBJECT_NAME":"ABS-4 (MOBISAT-1)","OBJECT_ID":"2004-007A","EPOCH":"2023-11-23T12:40:07.091040","MEAN_MOTION":1.00270189,"ECCENTRICITY":0.0006896,"INCLINATION":3.6522,"RA_OF_ASC_NODE":83.219,"ARG_OF_PERICENTER":170.875,"MEAN_ANOMALY":59.1877,"EPHEMERIS_TYPE":0,"CLASSIFICATION_TYPE":"U","NORAD_CAT_ID":28184,"ELEMENT_SET_NO":999,"REV_AT_EPOCH":4294,"BSTAR":0,"MEAN_MOTION_DOT":4.7e-7,"MEAN_MOTION_DDOT":0},{"OBJECT_NAME":"EUTELSAT 7A","OBJECT_ID":"2004-008A","EPOCH":"2023-11-23T05:54:07.863840","MEAN_MOTION":1.00272346,"ECCENTRICITY":0.0004375,"INCLINATION":3.4363,"RA_OF_ASC_NODE":82.9003,"ARG_OF_PERICENTER":162.7258,"MEAN_ANOMALY":125.6917,"EPHEMERIS_TYPE":0,"CLASSIFICATION_TYPE":"U","NORAD_CAT_ID":28187,"ELEMENT_SET_NO":999,"REV_AT_EPOCH":7195,"BSTAR":0,"MEAN_MOTION_DOT":1.11e-6,"MEAN_MOTION_DDOT":0},{"OBJECT_NAME":"NAVSTAR 54 (USA 177)","OBJECT_ID":"2004-009A","EPOCH":"2023-11-23T06:18:11.887776","MEAN_MOTION":2.005647,"ECCENTRICITY":0.0092093,"INCLINATION":55.6287,"RA_OF_ASC_NODE":313.289,"ARG_OF_PERICENTER":141.6035,"MEAN_ANOMALY":7.7509,"EPHEMERIS_TYPE":0,"CLASSIFICATION_TYPE":"U","NORAD_CAT_ID":28190,"ELEMENT_SET_NO":999,"REV_AT_EPOCH":14415,"BSTAR":0,"MEAN_MOTION_DOT":-5.9e-7,"MEAN_MOTION_DDOT":0},{"OBJECT_NAME":"SHIYAN 1 (SY-1)","OBJECT_ID":"2004-012A","EPOCH":"2023-11-23T14:17:23.080992","MEAN_MOTION":15.07918406,"ECCENTRICITY":0.0010547,"INCLINATION":97.9842,"RA_OF_ASC_NODE":342.0703,"ARG_OF_PERICENTER":19.5014,"MEAN_ANOMALY":340.6614,"EPHEMERIS_TYPE":0,"CLASSIFICATION_TYPE":"U","NORAD_CAT_ID":28220,"ELEMENT_SET_NO":999,"REV_AT_EPOCH":6882,"BSTAR":0.0006777,"MEAN_MOTION_DOT":0.00010356,"MEAN_MOTION_DDOT":0},{"OBJECT_NAME":"AMC-11 (GE-11)","OBJECT_ID":"2004-017A","EPOCH":"2023-11-23T11:50:44.697696","MEAN_MOTION":1.00272063,"ECCENTRICITY":0.0002802,"INCLINATION":0.0475,"RA_OF_ASC_NODE":78.0603,"ARG_OF_PERICENTER":168.2168,"MEAN_ANOMALY":242.5277,"EPHEMERIS_TYPE":0,"CLASSIFICATION_TYPE":"U","NORAD_CAT_ID":28252,"ELEMENT_SET_NO":999,"REV_AT_EPOCH":7148,"BSTAR":0,"MEAN_MOTION_DOT":-4.3e-7,"MEAN_MOTION_DDOT":0},{"OBJECT_NAME":"INTELSAT 10-02","OBJECT_ID":"2004-022A","EPOCH":"2023-11-22T23:42:42.706656","MEAN_MOTION":1.0026839,"ECCENTRICITY":7.32e-5,"INCLINATION":0.0153,"RA_OF_ASC_NODE":335.4696,"ARG_OF_PERICENTER":304.3347,"MEAN_ANOMALY":136.6102,"EPHEMERIS_TYPE":0,"CLASSIFICATION_TYPE":"U","NORAD_CAT_ID":28358,"ELEMENT_SET_NO":999,"REV_AT_EPOCH":7114,"BSTAR":0,"MEAN_MOTION_DOT":-6.0e-8,"MEAN_MOTION_DDOT":0},{"OBJECT_NAME":"NAVSTAR 55 (USA 178)","OBJECT_ID":"2004-023A","EPOCH":"2023-11-22T01:51:42.531840","MEAN_MOTION":2.00561375,"ECCENTRICITY":0.0146842,"INCLINATION":54.3344,"RA_OF_ASC_NODE":124.7037,"ARG_OF_PERICENTER":274.3244,"MEAN_ANOMALY":272.7747,"EPHEMERIS_TYPE":0,"CLASSIFICATION_TYPE":"U","NORAD_CAT_ID":28361,"ELEMENT_SET_NO":999,"REV_AT_EPOCH":14222,"BSTAR":0,"MEAN_MOTION_DOT":8.7e-7,"MEAN_MOTION_DDOT":0},{"OBJECT_NAME":"APRIZESAT 2","OBJECT_ID":"2004-025A","EPOCH":"2023-11-23T13:07:12.027936","MEAN_MOTION":14.37127763,"ECCENTRICITY":0.0106643,"INCLINATION":98.0952,"RA_OF_ASC_NODE":172.9467,"ARG_OF_PERICENTER":196.4883,"MEAN_ANOMALY":163.2827,"EPHEMERIS_TYPE":0,"CLASSIFICATION_TYPE":"U","NORAD_CAT_ID":28366,"ELEMENT_SET_NO":999,"REV_AT_EPOCH":1706,"BSTAR":0.00014292,"MEAN_MOTION_DOT":4.11e-6,"MEAN_MOTION_DDOT":0},{"OBJECT_NAME":"SAUDICOMSAT 1","OBJECT_ID":"2004-025D","EPOCH":"2023-11-23T08:59:34.903392","MEAN_MOTION":14.53551851,"ECCENTRICITY":0.0033448,"INCLINATION":98.5138,"RA_OF_ASC_NODE":299.8022,"ARG_OF_PERICENTER":13.6161,"MEAN_ANOMALY":346.5929,"EPHEMERIS_TYPE":0,"CLASSIFICATION_TYPE":"U","NORAD_CAT_ID":28369,"ELEMENT_SET_NO":999,"REV_AT_EPOCH":2793,"BSTAR":0.0002474,"MEAN_MOTION_DOT":9.92e-6,"MEAN_MOTION_DDOT":0},{"OBJECT_NAME":"SAUDICOMSAT 2","OBJECT_ID":"2004-025E","EPOCH":"2023-11-23T11:20:47.869728","MEAN_MOTION":14.48359235,"ECCENTRICITY":0.0056227,"INCLINATION":98.6059,"RA_OF_ASC_NODE":300.2302,"ARG_OF_PERICENTER":214.2519,"MEAN_ANOMALY":145.5042,"EPHEMERIS_TYPE":0,"CLASSIFICATION_TYPE":"U","NORAD_CAT_ID":28370,"ELEMENT_SET_NO":999,"REV_AT_EPOCH":2442,"BSTAR":0.00018388,"MEAN_MOTION_DOT":6.53e-6,"MEAN_MOTION_DDOT":0},{"OBJECT_NAME":"SAUDISAT 2","OBJECT_ID":"2004-025F","EPOCH":"2023-11-23T12:18:30.178656","MEAN_MOTION":14.55155504,"ECCENTRICITY":0.0024177,"INCLINATION":98.456,"RA_OF_ASC_NODE":292.7684,"ARG_OF_PERICENTER":295.4706,"MEAN_ANOMALY":64.3989,"EPHEMERIS_TYPE":0,"CLASSIFICATION_TYPE":"U","NORAD_CAT_ID":28371,"ELEMENT_SET_NO":999,"REV_AT_EPOCH":2944,"BSTAR":0.0001765,"MEAN_MOTION_DOT":7.17e-6,"MEAN_MOTION_DDOT":0}]
